[{"OBJECT_NAME":"LEMUR-2-GREENBERG","OBJECT_ID":"2017-042N","EPOCH":"2026-03-09T11:05:17.256192","MEAN_MOTION":15.27971352,"ECCENTRICITY":0.00091572,"INCLINATION":97.3781,"RA_OF_ASC_NODE":249.8007,"ARG_OF_PERICENTER":4.0119,"MEAN_ANOMALY":356.1192,"EPHEMERIS_TYPE":0,"CLASSIFICATION_TYPE":"U","NORAD_CAT_ID":42837,"ELEMENT_SET_NO":999,"REV_AT_EPOCH":47314,"BSTAR":0.00072539172,"MEAN_MOTION_DOT":0.00019778,"MEAN_MOTION_DDOT":0},{"OBJECT_NAME":"STARLINK-3669","OBJECT_ID":"2022-025R","EPOCH":"2026-03-09T06:46:46.342848","MEAN_MOTION":15.29361516,"ECCENTRICITY":0.00011966,"INCLINATION":53.1571,"RA_OF_ASC_NODE":26.2555,"ARG_OF_PERICENTER":96.9163,"MEAN_ANOMALY":263.1974,"EPHEMERIS_TYPE":0,"CLASSIFICATION_TYPE":"U","NORAD_CAT_ID":51971,"ELEMENT_SET_NO":999,"REV_AT_EPOCH":22095,"BSTAR":4.4702096e-5,"MEAN_MOTION_DOT":9.34e-6,"MEAN_MOTION_DDOT":0}]
